[{"OBJECT_NAME":"STARLINK-5261","OBJECT_ID":"2023-010H","EPOCH":"2026-03-09T22:31:03.912672","MEAN_MOTION":14.98328948,"ECCENTRICITY":0.00026707,"INCLINATION":70.0025,"RA_OF_ASC_NODE":23.9453,"ARG_OF_PERICENTER":253.2979,"MEAN_ANOMALY":106.7888,"EPHEMERIS_TYPE":0,"CLASSIFICATION_TYPE":"U","NORAD_CAT_ID":55276,"ELEMENT_SET_NO":999,"REV_AT_EPOCH":17330,"BSTAR":3.853512e-5,"MEAN_MOTION_DOT":3.67e-6,"MEAN_MOTION_DDOT":0},{"OBJECT_NAME":"COSMOS 374","OBJECT_ID":"1970-089A","EPOCH":"2026-03-09T23:19:35.282496","MEAN_MOTION":12.96748954,"ECCENTRICITY":0.09746559,"INCLINATION":62.9356,"RA_OF_ASC_NODE":4.6625,"ARG_OF_PERICENTER":50.8577,"MEAN_ANOMALY":317.503,"EPHEMERIS_TYPE":0,"CLASSIFICATION_TYPE":"U","NORAD_CAT_ID":4594,"ELEMENT_SET_NO":999,"REV_AT_EPOCH":65604,"BSTAR":0.00040579113,"MEAN_MOTION_DOT":1.091e-5,"MEAN_MOTION_DDOT":0}]
